BEIDOU-2 IGSO-1 (C06)   
1 36828U 10036A   23070.26655416 -.00000121  00000+0  00000+0 0  9997
2 36828  54.2106 173.7918 0035301 186.3370  13.0682  1.00274114 46250
BEIDOU-2 G4 (C04)       
1 37210U 10057A   23070.06704161 -.00000105  00000+0  00000+0 0  9998
2 37210   1.0374  56.5256 0002613 168.0504 128.0540  1.00271078 45303
BEIDOU-2 IGSO-2 (C07)   
1 37256U 10068A   23070.03867705 -.00000170  00000+0  00000+0 0  9993
2 37256  49.7298 286.4460 0023251 203.3563 160.9235  1.00283571 44820
BEIDOU-2 IGSO-3 (C08)   
1 37384U 11013A   23070.26011781 -.00000155  00000+0  00000+0 0  9999
2 37384  60.6842  51.6246 0023745 189.0468 128.6256  1.00283817 43696
BEIDOU-2 IGSO-4 (C09)   
1 37763U 11038A   23069.77107813 -.00000063  00000+0  00000+0 0  9991
2 37763  54.4874 176.3101 0105024 227.8456 136.8483  1.00268076 42677
BEIDOU-2 IGSO-5 (C10)   
1 37948U 11073A   23069.55801758 -.00000124  00000+0  00000+0 0  9998
2 37948  49.8536 286.1070 0085058 219.7184 319.3686  1.00273413 41428
BEIDOU-2 G5 (C05)       
1 38091U 12008A   23069.54302120  .00000062  00000+0  00000+0 0  9995
2 38091   2.1772  71.8682 0014064 312.0929  38.3388  1.00278193 40496
BEIDOU-2 M3 (C11)       
1 38250U 12018A   23069.75841030 -.00000075  00000+0  00000+0 0  9999
2 38250  56.5988 344.7550 0023024 262.9689 292.9811  1.86231195 74045
BEIDOU-2 M4 (C12)       
1 38251U 12018B   23069.71666958 -.00000074  00000+0  00000+0 0  9999
2 38251  56.5128 344.0630 0013952 269.6977 302.9221  1.86234256 74045
BEIDOU-2 M6 (C14)       
1 38775U 12050B   23069.64755969  .00000032  00000+0  00000+0 0  9992
2 38775  55.5652 102.7311 0013853 321.5949  39.7521  1.86231225 71429
BEIDOU-2 G6 (C02)       
1 38953U 12059A   23069.81569955 -.00000169  00000+0  00000+0 0  9998
2 38953   1.5843  82.4106 0011187 300.6879 162.8111  1.00273632 37939
BEIDOU-3S IGSO-1S (C31) 
1 40549U 15019A   23069.73285091 -.00000143  00000+0  00000+0 0  9990
2 40549  51.4134 309.6468 0036084 192.5061  23.1405  1.00296545 29102
BEIDOU-3S M2S (C57)     
1 40748U 15037A   23070.15321051 -.00000074  00000+0  00000+0 0  9999
2 40748  55.7573 342.7520 0005366   9.5937  44.7752  1.86233504 51886
BEIDOU-3S M1S (C58)     
1 40749U 15037B   23069.12264838 -.00000075  00000+0  00000+0 0  9995
2 40749  55.7597 342.7769 0006793 333.4916 243.9150  1.86232959 51854
BEIDOU-3S IGSO-2S (C56) 
1 40938U 15053A   23070.24085510 -.00000102  00000+0  00000+0 0  9997
2 40938  51.0849 272.7915 0043900 192.5087 246.4951  1.00277949 27373
BEIDOU-2 IGSO-6 (C13)   
1 41434U 16021A   23068.66015961 -.00000132  00000+0  00000+0 0  9994
2 41434  58.4907  50.0930 0049001 226.1490 224.8059  1.00273987 25493
BEIDOU-2 G7 (C03)       
1 41586U 16037A   23070.21855420 -.00000347  00000+0  00000+0 0  9993
2 41586   1.4664  64.4244 0009903 345.1566 308.2720  1.00272325 24811
BEIDOU-3 M1 (C19)       
1 43001U 17069A   23069.50077280  .00000033  00000+0  00000+0 0  9994
2 43001  55.7188 102.7715 0011721 288.9590 130.4488  1.86231513 36355
BEIDOU-3 M2 (C20)       
1 43002U 17069B   23069.40146906  .00000033  00000+0  00000+0 0  9996
2 43002  55.7162 102.8103 0009302 307.5396  88.0078  1.86231238 36340
BEIDOU-3 M7 (C27)       
1 43107U 18003A   23069.39633372 -.00000076  00000+0  00000+0 0  9995
2 43107  55.2110 343.5766 0004776  45.0773 153.6186  1.86232328 35109
BEIDOU-3 M8 (C28)       
1 43108U 18003B   23068.90067762 -.00000077  00000+0  00000+0 0  9997
2 43108  55.2050 343.5821 0003459 279.9029 348.8808  1.86230803 35097
BEIDOU-3 M4 (C22)       
1 43207U 18018A   23068.40616237  .00000036  00000+0  00000+0 0  9999
2 43207  55.6791 102.9137 0005773 325.0820  34.9624  1.86231400 34477
BEIDOU-3 M3 (C21)       
1 43208U 18018B   23069.54664739  .00000033  00000+0  00000+0 0  9993
2 43208  55.6764 102.8796 0009099 297.2250  62.7603  1.86231519 34499
BEIDOU-3 M9 (C29)       
1 43245U 18029A   23066.88099906 -.00000080  00000+0  00000+0 0  9991
2 43245  55.1149 341.4120 0001571 332.9195 249.9979  1.86232440 33595
BEIDOU-3 M10 (C30)      
1 43246U 18029B   23068.18699602 -.00000076  00000+0  10000-3 0  9996
2 43246  55.1114 341.3970 0005234 358.7589  66.5133  1.86232646 33619
BEIDOU-2 IGSO-7 (C16)   
1 43539U 18057A   23069.65003841 -.00000125  00000+0  00000+0 0  9999
2 43539  55.1046 173.3920 0057446 228.5813 111.9680  1.00285014 17170
BEIDOU-3 M5 (C23)       
1 43581U 18062A   23070.18750098  .00000058  00000+0  00000+0 0  9999
2 43581  54.2121 222.9592 0001430 326.2967 211.9940  1.86231841 31398
BEIDOU-3 M6 (C24)       
1 43582U 18062B   23069.78120875  .00000054  00000+0  00000+0 0  9994
2 43582  54.2118 222.9626 0006725  31.8933 325.4463  1.86229476 31388
BEIDOU-3 M12 (C26)      
1 43602U 18067A   23068.65064633  .00000043  00000+0  00000+0 0  9994
2 43602  54.2983 221.6401 0007870  24.1158 336.6332  1.86231601 30868
BEIDOU-3 M11 (C25)      
1 43603U 18067B   23069.92396932  .00000055  00000+0  00000+0 0  9999
2 43603  54.2948 221.5631 0004698  20.8379  23.9367  1.86231507 30901
BEIDOU-3 M13 (C32)      
1 43622U 18072A   23068.47410735  .00000035  00000+0  00000+0 0  9991
2 43622  55.6443 102.4562 0008150 283.1891 257.8850  1.86231359 30389
BEIDOU-3 M14 (C33)      
1 43623U 18072B   23069.97611693  .00000031  00000+0  00000+0 0  9990
2 43623  55.6486 102.3984 0005700 301.2459 257.0922  1.86231399 30414
BEIDOU-3 M16 (C35)      
1 43647U 18078A   23070.15923981 -.00000074  00000+0  10000-3 0  9993
2 43647  55.0134 341.4369 0008557   3.1605 212.0552  1.86227133 29926
BEIDOU-3 M15 (C34)      
1 43648U 18078B   23069.68814300 -.00000074  00000+0  00000+0 0  9999
2 43648  55.0043 341.4570 0005398  10.5185 158.1189  1.86232095 29935
BEIDOU-3 G1 (C59)       
1 43683U 18085A   23069.83011829 -.00000271  00000+0  00000+0 0  9997
2 43683   1.1559 139.5467 0001752  35.3953  72.0759  1.00276730 16086
BEIDOU-3 M17 (C36)      
1 43706U 18093A   23068.51206939  .00000042  00000+0  00000+0 0  9999
2 43706  54.2946 222.9212 0007000 284.0972  75.7751  1.86231950 29256
BEIDOU-3 M18 (C37)      
1 43707U 18093B   23069.43594958  .00000051  00000+0  00000+0 0  9993
2 43707  54.2935 222.8816 0006479 323.7395  26.9010  1.86230734 29270
BEIDOU-3 IGSO-1 (C38)   
1 44204U 19023A   23069.78492068 -.00000191  00000+0  00000+0 0  9993
2 44204  56.9565  50.1214 0020528 208.9670 311.1212  1.00282510 14380
BEIDOU-2 G8 (C01)       
1 44231U 19027A   23070.24684744 -.00000239  00000+0  00000+0 0  9997
2 44231   1.5129  80.9882 0004751 143.2906 177.6983  1.00276005 14097
BEIDOU-3 IGSO-2 (C39)   
1 44337U 19035A   23069.59464374 -.00000128  00000+0  00000+0 0  9991
2 44337  55.1410 169.3587 0030030 195.7758 136.5559  1.00276250 13715
BEIDOU-3 M24 (C46)      
1 44542U 19061A   23068.44891811  .00000042  00000+0  00000+0 0  9995
2 44542  54.5214 223.1175 0007895   1.5238 358.4286  1.86231221 23525
BEIDOU-3 M23 (C45)      
1 44543U 19061B   23068.65725946  .00000044  00000+0  00000+0 0  9996
2 44543  54.5220 223.0823 0005150   2.9384  48.3343  1.86231589 23527
BEIDOU-3 IGSO-3 (C40)   
1 44709U 19073A   23069.87468560 -.00000150  00000+0  00000+0 0  9993
2 44709  56.8263 293.6101 0028953 178.1588 130.6428  1.00281583 12468
BEIDOU-3 M22 (C44)      
1 44793U 19078A   23065.60615644 -.00000087  00000+0  10000-3 0  9999
2 44793  54.8597 341.5823 0007326   9.1417 348.8999  1.86231952 22329
BEIDOU-3 M21 (C43)      
1 44794U 19078B   23068.17303446 -.00000077  00000+0  00000+0 0  9993
2 44794  54.8320 341.4800 0005264   4.2235 186.9276  1.86232498 22371
BEIDOU-3 M19 (C41)      
1 44864U 19090A   23069.22493688  .00000033  00000+0  00000+0 0  9991
2 44864  55.5788 102.6279 0019134 272.4953  98.0613  1.86231784 21980
BEIDOU-3 M20 (C42)      
1 44865U 19090B   23070.25416645  .00000030  00000+0  00000+0 0  9992
2 44865  55.5835 102.6254 0016771 284.6105 145.8214  1.86231704 21974
BEIDOU-3 G2 (C60)       
1 45344U 20017A   23069.81326998 -.00000134  00000+0  00000+0 0  9993
2 45344   1.9906   6.4469 0001465  31.8244 142.7542  1.00272412 11280
BEIDOU-3 G3 (C61)       
1 45807U 20040A   23069.96834259 -.00000347  00000+0  00000+0 0  9999
2 45807   0.8768 317.5447 0006385 339.4281 330.5464  1.00274133 10106
